{
  "type": "FeatureCollection",
  "features": [
    {
      "type": "Feature",
      "properties": {
        "norad_id": 36036,
        "name": "SMOS",
        "group": "resource",
        "lat": -62.581103206721444,
        "lon": -32.26547773558418,
        "alt_km": 767.0698986111829,
        "timestamp": "2025-12-05T04:52:14.978624+00:00",
        "meta_object_name": "SMOS",
        "meta_object_id": "2009-059A",
        "meta_epoch": "2025-12-04T12:43:52.487040",
        "meta_mean_motion": 14.39791112,
        "meta_eccentricity": 0.0001012,
        "meta_inclination": 98.4384,
        "meta_ra_of_asc_node": 163.7001,
        "meta_arg_of_pericenter": 72.1141,
        "meta_mean_anomaly": 288.0158,
        "meta_ephemeris_type": 0,
        "meta_classification_type": "U",
        "meta_norad_cat_id": 36036,
        "meta_element_set_no": 999,
        "meta_rev_at_epoch": 84544,
        "meta_bstar": 0.00025732,
        "meta_mean_motion_dot": 7.63e-06,
        "meta_mean_motion_ddot": 0,
        "tle_line1": "1 36036U 09059A   25338.53046860  .00000763  00000+0  25732-3 0  9991",
        "tle_line2": "2 36036  98.4384 163.7001 0001012  72.1141 288.0158 14.39791112845449"
      },
      "geometry": {
        "type": "Point",
        "coordinates": [
          -32.26547773558418,
          -62.581103206721444
        ]
      }
    },
    {
      "type": "Feature",
      "properties": {
        "norad_id": 36110,
        "name": "YAOGAN-7",
        "group": "resource",
        "lat": 59.29148536064646,
        "lon": 54.7362278961959,
        "alt_km": 647.3294025924897,
        "timestamp": "2025-12-05T04:52:14.978633+00:00",
        "meta_object_name": "YAOGAN-7",
        "meta_object_id": "2009-069A",
        "meta_epoch": "2025-12-04T15:19:45.778656",
        "meta_mean_motion": 14.77713846,
        "meta_eccentricity": 0.0023733,
        "meta_inclination": 98.0302,
        "meta_ra_of_asc_node": 220.4244,
        "meta_arg_of_pericenter": 308.6984,
        "meta_mean_anomaly": 51.2103,
        "meta_ephemeris_type": 0,
        "meta_classification_type": "U",
        "meta_norad_cat_id": 36110,
        "meta_element_set_no": 999,
        "meta_rev_at_epoch": 86089,
        "meta_bstar": 0.00019835,
        "meta_mean_motion_dot": 1.374e-05,
        "meta_mean_motion_ddot": 0,
        "tle_line1": "1 36110U 09069A   25338.63872429  .00001374  00000+0  19835-3 0  9990",
        "tle_line2": "2 36110  98.0302 220.4244 0023733 308.6984  51.2103 14.77713846860890"
      },
      "geometry": {
        "type": "Point",
        "coordinates": [
          54.7362278961959,
          59.29148536064646
        ]
      }
    },
    {
      "type": "Feature",
      "properties": {
        "norad_id": 36605,
        "name": "TANDEM-X",
        "group": "resource",
        "lat": -36.43680566493056,
        "lon": -9.765736537714227,
        "alt_km": 515.6358651648698,
        "timestamp": "2025-12-05T04:52:14.978642+00:00",
        "meta_object_name": "TANDEM-X",
        "meta_object_id": "2010-030A",
        "meta_epoch": "2025-12-04T14:48:17.883360",
        "meta_mean_motion": 15.19148899,
        "meta_eccentricity": 0.0001864,
        "meta_inclination": 97.4452,
        "meta_ra_of_asc_node": 344.1166,
        "meta_arg_of_pericenter": 95.4078,
        "meta_mean_anomaly": 264.7369,
        "meta_ephemeris_type": 0,
        "meta_classification_type": "U",
        "meta_norad_cat_id": 36605,
        "meta_element_set_no": 999,
        "meta_rev_at_epoch": 85710,
        "meta_bstar": 0.00011882,
        "meta_mean_motion_dot": 2.429e-05,
        "meta_mean_motion_ddot": 0,
        "tle_line1": "1 36605U 10030A   25338.61687365  .00002429  00000+0  11882-3 0  9996",
        "tle_line2": "2 36605  97.4452 344.1166 0001864  95.4078 264.7369 15.19148899857103"
      },
      "geometry": {
        "type": "Point",
        "coordinates": [
          -9.765736537714227,
          -36.43680566493056
        ]
      }
    },
    {
      "type": "Feature",
      "properties": {
        "norad_id": 36795,
        "name": "CARTOSAT-2B",
        "group": "resource",
        "lat": 18.465419671728,
        "lon": 25.85894128215661,
        "alt_km": 632.0893964452889,
        "timestamp": "2025-12-05T04:52:14.978651+00:00",
        "meta_object_name": "CARTOSAT-2B",
        "meta_object_id": "2010-035A",
        "meta_epoch": "2025-12-04T17:25:08.567040",
        "meta_mean_motion": 14.78770196,
        "meta_eccentricity": 0.0012894,
        "meta_inclination": 97.7865,
        "meta_ra_of_asc_node": 28.0161,
        "meta_arg_of_pericenter": 101.124,
        "meta_mean_anomaly": 259.1422,
        "meta_ephemeris_type": 0,
        "meta_classification_type": "U",
        "meta_norad_cat_id": 36795,
        "meta_element_set_no": 999,
        "meta_rev_at_epoch": 83111,
        "meta_bstar": 0.00020963,
        "meta_mean_motion_dot": 1.492e-05,
        "meta_mean_motion_ddot": 0,
        "tle_line1": "1 36795U 10035A   25338.72579360  .00001492  00000+0  20963-3 0  9997",
        "tle_line2": "2 36795  97.7865  28.0161 0012894 101.1240 259.1422 14.78770196831114"
      },
      "geometry": {
        "type": "Point",
        "coordinates": [
          25.85894128215661,
          18.465419671728
        ]
      }
    },
    {
      "type": "Feature",
      "properties": {
        "norad_id": 36834,
        "name": "YAOGAN-10",
        "group": "resource",
        "lat": -57.783931517699216,
        "lon": 11.834864895691098,
        "alt_km": 622.9091987467064,
        "timestamp": "2025-12-05T04:52:14.978660+00:00",
        "meta_object_name": "YAOGAN-10",
        "meta_object_id": "2010-038A",
        "meta_epoch": "2025-12-04T18:18:32.509728",
        "meta_mean_motion": 14.84560446,
        "meta_eccentricity": 0.0001515,
        "meta_inclination": 97.9146,
        "meta_ra_of_asc_node": 358.6436,
        "meta_arg_of_pericenter": 85.4321,
        "meta_mean_anomaly": 25.4685,
        "meta_ephemeris_type": 0,
        "meta_classification_type": "U",
        "meta_norad_cat_id": 36834,
        "meta_element_set_no": 999,
        "meta_rev_at_epoch": 82835,
        "meta_bstar": 0.00033482,
        "meta_mean_motion_dot": 2.772e-05,
        "meta_mean_motion_ddot": 0,
        "tle_line1": "1 36834U 10038A   25338.76287627  .00002772  00000+0  33482-3 0  9992",
        "tle_line2": "2 36834  97.9146 358.6436 0001515  85.4321  25.4685 14.84560446828350"
      },
      "geometry": {
        "type": "Point",
        "coordinates": [
          11.834864895691098,
          -57.783931517699216
        ]
      }
    },
    {
      "type": "Feature",
      "properties": {
        "norad_id": 37216,
        "name": "COSMO-SKYMED 4",
        "group": "resource",
        "lat": -68.34920538854584,
        "lon": -178.93785995241083,
        "alt_km": 630.6538911939633,
        "timestamp": "2025-12-05T04:52:14.978670+00:00",
        "meta_object_name": "COSMO-SKYMED 4",
        "meta_object_id": "2010-060A",
        "meta_epoch": "2025-12-04T19:27:49.322592",
        "meta_mean_motion": 14.82153432,
        "meta_eccentricity": 0.0001382,
        "meta_inclination": 97.8808,
        "meta_ra_of_asc_node": 160.2537,
        "meta_arg_of_pericenter": 83.3517,
        "meta_mean_anomaly": 276.7853,
        "meta_ephemeris_type": 0,
        "meta_classification_type": "U",
        "meta_norad_cat_id": 37216,
        "meta_element_set_no": 999,
        "meta_rev_at_epoch": 81577,
        "meta_bstar": 0.00013932,
        "meta_mean_motion_dot": 1.057e-05,
        "meta_mean_motion_ddot": 0,
        "tle_line1": "1 37216U 10060A   25338.81098753  .00001057  00000+0  13932-3 0  9991",
        "tle_line2": "2 37216  97.8808 160.2537 0001382  83.3517 276.7853 14.82153432815775"
      },
      "geometry": {
        "type": "Point",
        "coordinates": [
          -178.93785995241083,
          -68.34920538854584
        ]
      }
    },
    {
      "type": "Feature",
      "properties": {
        "norad_id": 37387,
        "name": "RESOURCESAT-2",
        "group": "resource",
        "lat": 79.50008089125372,
        "lon": -80.62410684816719,
        "alt_km": 808.5429605213312,
        "timestamp": "2025-12-05T04:52:14.978679+00:00",
        "meta_object_name": "RESOURCESAT-2",
        "meta_object_id": "2011-015A",
        "meta_epoch": "2025-12-04T16:35:53.673216",
        "meta_mean_motion": 14.21592362,
        "meta_eccentricity": 0.0006743,
        "meta_inclination": 98.7888,
        "meta_ra_of_asc_node": 42.2792,
        "meta_arg_of_pericenter": 63.3802,
        "meta_mean_anomaly": 296.8065,
        "meta_ephemeris_type": 0,
        "meta_classification_type": "U",
        "meta_norad_cat_id": 37387,
        "meta_element_set_no": 999,
        "meta_rev_at_epoch": 75854,
        "meta_bstar": 0.00017567,
        "meta_mean_motion_dot": 3.41e-06,
        "meta_mean_motion_ddot": 0,
        "tle_line1": "1 37387U 11015A   25338.69159344  .00000341  00000+0  17567-3 0  9994",
        "tle_line2": "2 37387  98.7888  42.2792 0006743  63.3802 296.8065 14.21592362758546"
      },
      "geometry": {
        "type": "Point",
        "coordinates": [
          -80.62410684816719,
          79.50008089125372
        ]
      }
    }
  ]
}